STARLINK-30266          
1 57529U 23115J   26067.25161082  .00125986  00000+0  45460-2 0  9997
2 57529  43.0018   9.5251 0001763 256.7731 103.2924 15.27319514142136
TRANSPORTER-12 OBJECT BT
1 62674U 25009BT  26068.71416991  .00013824  00000+0  51029-3 0  9998
2 62674  97.4094 151.5992 0003682 313.5044  46.5889 15.27872239121360
